CAS-2T & KS-1Q          
1 41847U 16066G   20241.77631307  .00000017  00000-0  12956-4 0  9991
2 41847  98.6479 292.9923 0365850  13.5891 347.4831 14.38086864199815
NAYIF-1 (EO-88)         
1 42017U 17008BX  20241.71740314  .00001262  00000-0  50808-4 0  9992
2 42017  97.3547 308.2124 0007799  72.6401 287.5690 15.26674549196577
MAX VALIER SAT          
1 42778U 17036P   20241.69580407  .00000751  00000-0  35045-4 0  9997
2 42778  97.2990 293.3131 0013694 124.0561 236.1978 15.22728330176722
RADFXSAT (FOX-1B)       
1 43017U 17073E   20241.71354632  .00000225  00000-0  22948-4 0  9991
2 43017  97.7173 151.1545 0256825 174.5861 185.8227 14.78998216149847
FOX-1D (AO-92)          
1 43137U 18004AC  20241.76594782  .00000909  00000-0  40157-4 0  9997
2 43137  97.4411 312.4245 0009875 152.5397 207.6364 15.24241979146067
DIWATA-2B               
1 43678U 18084H   20241.78817889  .00000147  00000-0  20380-4 0  9993
2 43678  97.8916   0.2198 0008848 303.8819  56.1539 14.91648434 99809
ES'HAIL 2               
1 43700U 18090A   20241.79685565  .00000121  00000-0  00000-0 0  9996
2 43700   0.0150 131.8913 0002025  40.8501 117.3732  1.00270176  6436
FOX-1CLIFF (AO-95)      
1 43770U 18099N   20241.72679260  .00000148  00000-0  18742-4 0  9995
2 43770  97.7011 311.8319 0013495 320.1375  39.8853 14.95027188 94719
ITASAT 1                
1 43786U 18099AE  20241.77438368 -.00000213  00000-0 -14084-4 0  9999
2 43786  97.7030 312.3499 0014063 313.3361  46.6687 14.95363293 94747
JY1SAT (JO-97)          
1 43803U 18099AX  20241.71328307 -.00000214  00000-0 -14114-4 0  9999
2 43803  97.6989 312.0921 0014037 313.5776  46.4279 14.95546692 94739
PSAT2 (NO-104)          
1 44354U 19036R   20241.38714503  .00010596  00000-0  15182-3 0  9990
2 44354  28.5297 267.8004 0359128 359.9620   0.0908 15.04800929 64650
BRICSAT2 (NO-103)       
1 44355U 19036S   20241.70904373  .00021577  00000-0  29360-3 0  9997
2 44355  28.5282 252.8119 0333327  24.3467 337.2489 15.11402795 64848
JAISAT-1                
1 44419U 19038F   20241.84968469  .00000735  00000-0  45346-4 0  9997
2 44419  97.5447 202.6263 0019993 239.2112 120.7151 15.12882891 63542
DUCHIFAT-3              
1 44854U 19089C   20241.69665827  .00000245  00000-0  26163-4 0  9993
2 44854  36.9677  31.3943 0009849 290.8471  69.1211 14.99110125 39149
RS-44 & BREEZE-KM R/B   
1 44909U 19096E   20241.75609885  .00000008  00000-0 -18867-4 0  9991
2 44909  82.5219 307.2770 0218259  57.6652 304.5377 12.79707594 31430
ORBITAL FACTORY 2 (OF-2)
1 45113U 19071C   20241.82233407  .00001617  00000-0  60493-4 0  9991
2 45113  51.6454  13.8977 0012520 320.0988  39.9073 15.33577848 32238
HUSKYSAT-1              
1 45119U 19071J   20241.79088523  .00001516  00000-0  57096-4 0  9993
2 45119  51.6453  13.6881 0011785 316.5870  43.4184 15.33777406 32221
